{"type": "FeatureCollection", "features": [ {"type": "Feature", "properties": {"norad_id": 30146, "name": "FENGYUN 1C DEB", "group": "fengyun-1c-debris", "lat": 29.731226165048763, "lon": -21.72196989199669, "alt_km": 854.378888503009, "timestamp": "2025-12-21T05:44:51.860113+00:00", "meta": {"OBJECT_NAME": "FENGYUN 1C DEB", "OBJECT_ID": "1999-025TB", "EPOCH": "2025-12-20T10:15:17.360928", "MEAN_MOTION": 13.86611259, "ECCENTRICITY": 0.01787359, "INCLINATION": 98.0205, "RA_OF_ASC_NODE": 152.9623, "ARG_OF_PERICENTER": 101.6, "MEAN_ANOMALY": 314.5733, "EPHEMERIS_TYPE": 0, "CLASSIFICATION_TYPE": "U", "NORAD_CAT_ID": 30146, "ELEMENT_SET_NO": 999, "REV_AT_EPOCH": 95524, "BSTAR": 0.00043591386, "MEAN_MOTION_DOT": 5.42e-06, "MEAN_MOTION_DDOT": 0}, "tle": {"line1": "1 30146U 99025TB  25354.42728427  .00000542  00000+0  43591-3 0  9999", "line2": "2 30146  98.0205 152.9623 0178735 101.6000 314.5733 13.86611259955240"}}, "geometry": {"type": "Point", "coordinates": [-21.72196989199669, 29.731226165048763]}}, {"type": "Feature", "properties": {"norad_id": 30148, "name": "FENGYUN 1C DEB", "group": "fengyun-1c-debris", "lat": -52.69666252887256, "lon": -48.0144163665352, "alt_km": 889.7878406724876, "timestamp": "2025-12-21T05:44:51.860124+00:00", "meta": {"OBJECT_NAME": "FENGYUN 1C DEB", "OBJECT_ID": "1999-025TD", "EPOCH": "2025-12-20T09:53:13.593696", "MEAN_MOTION": 13.88503056, "ECCENTRICITY": 0.0135042, "INCLINATION": 99.5455, "RA_OF_ASC_NODE": 143.8979, "ARG_OF_PERICENTER": 176.3114, "MEAN_ANOMALY": 241.7748, "EPHEMERIS_TYPE": 0, "CLASSIFICATION_TYPE": "U", "NORAD_CAT_ID": 30148, "ELEMENT_SET_NO": 999, "REV_AT_EPOCH": 95623, "BSTAR": 0.00058409841, "MEAN_MOTION_DOT": 7.08e-06, "MEAN_MOTION_DDOT": 0}, "tle": {"line1": "1 30148U 99025TD  25354.41196289  .00000708  00000+0  58410-3 0  9995", "line2": "2 30148  99.5455 143.8979 0135042 176.3114 241.7748 13.88503056956231"}}, "geometry": {"type": "Point", "coordinates": [-48.0144163665352, -52.69666252887256]}}, {"type": "Feature", "properties": {"norad_id": 30150, "name": "FENGYUN 1C DEB", "group": "fengyun-1c-debris", "lat": -48.47342876161924, "lon": 141.21073561429415, "alt_km": 840.2444699140706, "timestamp": "2025-12-21T05:44:51.860134+00:00", "meta": {"OBJECT_NAME": "FENGYUN 1C DEB", "OBJECT_ID": "1999-025TF", "EPOCH": "2025-12-20T07:46:22.857024", "MEAN_MOTION": 13.86602986, "ECCENTRICITY": 0.01464104, "INCLINATION": 98.9948, "RA_OF_ASC_NODE": 130.027, "ARG_OF_PERICENTER": 315.527, "MEAN_ANOMALY": 107.2744, "EPHEMERIS_TYPE": 0, "CLASSIFICATION_TYPE": "U", "NORAD_CAT_ID": 30150, "ELEMENT_SET_NO": 999, "REV_AT_EPOCH": 95563, "BSTAR": 0.00041454165, "MEAN_MOTION_DOT": 4.81e-06, "MEAN_MOTION_DDOT": 0}, "tle": {"line1": "1 30150U 99025TF  25354.32387566  .00000481  00000+0  41454-3 0  9996", "line2": "2 30150  98.9948 130.0270 0146410 315.5270 107.2744 13.86602986955632"}}, "geometry": {"type": "Point", "coordinates": [141.21073561429415, -48.47342876161924]}}, {"type": "Feature", "properties": {"norad_id": 30151, "name": "FENGYUN 1C DEB", "group": "fengyun-1c-debris", "lat": 48.080826680908515, "lon": -7.316801597774178, "alt_km": 1049.8983595375994, "timestamp": "2025-12-21T05:44:51.860144+00:00", "meta": {"OBJECT_NAME": "FENGYUN 1C DEB", "OBJECT_ID": "1999-025TG", "EPOCH": "2025-12-20T12:54:53.968896", "MEAN_MOTION": 13.84482637, "ECCENTRICITY": 0.0163192, "INCLINATION": 99.0632, "RA_OF_ASC_NODE": 2.2461, "ARG_OF_PERICENTER": 257.7382, "MEAN_ANOMALY": 256.5587, "EPHEMERIS_TYPE": 0, "CLASSIFICATION_TYPE": "U", "NORAD_CAT_ID": 30151, "ELEMENT_SET_NO": 999, "REV_AT_EPOCH": 95353, "BSTAR": 0.00040621, "MEAN_MOTION_DOT": 4.61e-06, "MEAN_MOTION_DDOT": 0}, "tle": {"line1": "1 30151U 99025TG  25354.53812464  .00000461  00000+0  40621-3 0  9993", "line2": "2 30151  99.0632   2.2461 0163192 257.7382 256.5587 13.84482637953531"}}, "geometry": {"type": "Point", "coordinates": [-7.316801597774178, 48.080826680908515]}}, {"type": "Feature", "properties": {"norad_id": 30152, "name": "FENGYUN 1C DEB", "group": "fengyun-1c-debris", "lat": -6.221068941663506, "lon": 31.88613892453977, "alt_km": 973.912825828238, "timestamp": "2025-12-21T05:44:51.860155+00:00", "meta": {"OBJECT_NAME": "FENGYUN 1C DEB", "OBJECT_ID": "1999-025TH", "EPOCH": "2025-12-20T13:24:05.379840", "MEAN_MOTION": 13.96741373, "ECCENTRICITY": 0.0162392, "INCLINATION": 99.0799, "RA_OF_ASC_NODE": 212.2125, "ARG_OF_PERICENTER": 63.8437, "MEAN_ANOMALY": 297.9327, "EPHEMERIS_TYPE": 0, "CLASSIFICATION_TYPE": "U", "NORAD_CAT_ID": 30152, "ELEMENT_SET_NO": 999, "REV_AT_EPOCH": 95487, "BSTAR": 0.0017787, "MEAN_MOTION_DOT": 2.717e-05, "MEAN_MOTION_DDOT": 0}, "tle": {"line1": "1 30152U 99025TH  25354.55839560  .00002717  00000+0  17787-2 0  9994", "line2": "2 30152  99.0799 212.2125 0162392  63.8437 297.9327 13.96741373954871"}}, "geometry": {"type": "Point", "coordinates": [31.88613892453977, -6.221068941663506]}}, {"type": "Feature", "properties": {"norad_id": 30153, "name": "FENGYUN 1C DEB", "group": "fengyun-1c-debris", "lat": -6.256992870709169, "lon": -12.337214568307285, "alt_km": 826.4177125901379, "timestamp": "2025-12-21T05:44:51.860177+00:00", "meta": {"OBJECT_NAME": "FENGYUN 1C DEB", "OBJECT_ID": "1999-025TJ", "EPOCH": "2025-12-20T21:23:44.880288", "MEAN_MOTION": 13.78791211, "ECCENTRICITY": 0.02005479, "INCLINATION": 100.4673, "RA_OF_ASC_NODE": 346.1175, "ARG_OF_PERICENTER": 344.9502, "MEAN_ANOMALY": 81.9681, "EPHEMERIS_TYPE": 0, "CLASSIFICATION_TYPE": "U", "NORAD_CAT_ID": 30153, "ELEMENT_SET_NO": 999, "REV_AT_EPOCH": 94887, "BSTAR": 0.00089656481, "MEAN_MOTION_DOT": 1.006e-05, "MEAN_MOTION_DDOT": 0}, "tle": {"line1": "1 30153U 99025TJ  25354.89149167  .00001006  00000+0  89656-3 0  9994", "line2": "2 30153 100.4673 346.1175 0200547 344.9502  81.9681 13.78791211948876"}}, "geometry": {"type": "Point", "coordinates": [-12.337214568307285, -6.256992870709169]}}, {"type": "Feature", "properties": {"norad_id": 30154, "name": "FENGYUN 1C DEB", "group": "fengyun-1c-debris", "lat": 76.72440389845585, "lon": -104.75117773682146, "alt_km": 899.2319289216402, "timestamp": "2025-12-21T05:44:51.860190+00:00", "meta": {"OBJECT_NAME": "FENGYUN 1C DEB", "OBJECT_ID": "1999-025TK", "EPOCH": "2025-12-20T16:00:43.341984", "MEAN_MOTION": 13.86017085, "ECCENTRICITY": 0.01830153, "INCLINATION": 98.4487, "RA_OF_ASC_NODE": 35.6866, "ARG_OF_PERICENTER": 177.1934, "MEAN_ANOMALY": 310.9653, "EPHEMERIS_TYPE": 0, "CLASSIFICATION_TYPE": "U", "NORAD_CAT_ID": 30154, "ELEMENT_SET_NO": 999, "REV_AT_EPOCH": 95094, "BSTAR": 0.001007571, "MEAN_MOTION_DOT": 1.285e-05, "MEAN_MOTION_DDOT": 0}, "tle": {"line1": "1 30154U 99025TK  25354.66716831  .00001285  00000+0  10076-2 0  9996", "line2": "2 30154  98.4487  35.6866 0183015 177.1934 310.9653 13.86017085950942"}}, "geometry": {"type": "Point", "coordinates": [-104.75117773682146, 76.72440389845585]}}, {"type": "Feature", "properties": {"norad_id": 30155, "name": "FENGYUN 1C DEB", "group": "fengyun-1c-debris", "lat": -50.09149656399632, "lon": 80.80350867148262, "alt_km": 818.40941407017, "timestamp": "2025-12-21T05:44:51.860200+00:00", "meta": {"OBJECT_NAME": "FENGYUN 1C DEB", "OBJECT_ID": "1999-025TL", "EPOCH": "2025-12-20T02:01:11.381664", "MEAN_MOTION": 13.73830418, "ECCENTRICITY": 0.02422307, "INCLINATION": 99.7516, "RA_OF_ASC_NODE": 67.7598, "ARG_OF_PERICENTER": 324.6747, "MEAN_ANOMALY": 33.8555, "EPHEMERIS_TYPE": 0, "CLASSIFICATION_TYPE": "U", "NORAD_CAT_ID": 30155, "ELEMENT_SET_NO": 999, "REV_AT_EPOCH": 93965, "BSTAR": 0.0015533777, "MEAN_MOTION_DOT": 1.749e-05, "MEAN_MOTION_DDOT": 0}, "tle": {"line1": "1 30155U 99025TL  25354.08415951  .00001749  00000+0  15534-2 0  9991", "line2": "2 30155  99.7516  67.7598 0242230 324.6747  33.8555 13.73830418939650"}}, "geometry": {"type": "Point", "coordinates": [80.80350867148262, -50.09149656399632]}}, {"type": "Feature", "properties": {"norad_id": 30156, "name": "FENGYUN 1C DEB", "group": "fengyun-1c-debris", "lat": 55.96922055847152, "lon": -51.67781065153384, "alt_km": 1101.2400153708877, "timestamp": "2025-12-21T05:44:51.860210+00:00", "meta": {"OBJECT_NAME": "FENGYUN 1C DEB", "OBJECT_ID": "1999-025TM", "EPOCH": "2025-12-20T20:54:40.803840", "MEAN_MOTION": 13.80834904, "ECCENTRICITY": 0.01987871, "INCLINATION": 98.9195, "RA_OF_ASC_NODE": 321.4218, "ARG_OF_PERICENTER": 240.9851, "MEAN_ANOMALY": 146.7228, "EPHEMERIS_TYPE": 0, "CLASSIFICATION_TYPE": "U", "NORAD_CAT_ID": 30156, "ELEMENT_SET_NO": 999, "REV_AT_EPOCH": 94803, "BSTAR": 0.00087522324, "MEAN_MOTION_DOT": 1.028e-05, "MEAN_MOTION_DDOT": 0}, "tle": {"line1": "1 30156U 99025TM  25354.87130560  .00001028  00000+0  87522-3 0  9996", "line2": "2 30156  98.9195 321.4218 0198787 240.9851 146.7228 13.80834904948032"}}, "geometry": {"type": "Point", "coordinates": [-51.67781065153384, 55.96922055847152]}}, {"type": "Feature", "properties": {"norad_id": 30157, "name": "FENGYUN 1C DEB", "group": "fengyun-1c-debris", "lat": 39.479694640160176, "lon": -80.24161787533113, "alt_km": 715.0756457925218, "timestamp": "2025-12-21T05:44:51.860220+00:00", "meta": {"OBJECT_NAME": "FENGYUN 1C DEB", "OBJECT_ID": "1999-025TN", "EPOCH": "2025-12-20T18:10:15.123072", "MEAN_MOTION": 14.45199646, "ECCENTRICITY": 0.00370924, "INCLINATION": 98.7169, "RA_OF_ASC_NODE": 92.0029, "ARG_OF_PERICENTER": 169.8669, "MEAN_ANOMALY": 342.0264, "EPHEMERIS_TYPE": 0, "CLASSIFICATION_TYPE": "U", "NORAD_CAT_ID": 30157, "ELEMENT_SET_NO": 999, "REV_AT_EPOCH": 98188, "BSTAR": 0.0012271867, "MEAN_MOTION_DOT": 4.291e-05, "MEAN_MOTION_DDOT": 0}, "tle": {"line1": "1 30157U 99025TN  25354.75711948  .00004291  00000+0  12272-2 0  9993", "line2": "2 30157  98.7169  92.0029 0037092 169.8669 342.0264 14.45199646981880"}}, "geometry": {"type": "Point", "coordinates": [-80.24161787533113, 39.479694640160176]}}]}